[{"OBJECT_NAME":"TDRS 3","OBJECT_ID":"1988-091B","EPOCH":"2026-02-26T20:18:23.173920","MEAN_MOTION":1.00261626,"ECCENTRICITY":0.0044225,"INCLINATION":12.6852,"RA_OF_ASC_NODE":341.7287,"ARG_OF_PERICENTER":351.9002,"MEAN_ANOMALY":78.3575,"EPHEMERIS_TYPE":0,"CLASSIFICATION_TYPE":"U","NORAD_CAT_ID":19548,"ELEMENT_SET_NO":999,"REV_AT_EPOCH":12428,"BSTAR":0,"MEAN_MOTION_DOT":-3.06e-6,"MEAN_MOTION_DDOT":0},{"OBJECT_NAME":"HST","OBJECT_ID":"1990-037B","EPOCH":"2026-03-04T03:14:53.333664","MEAN_MOTION":15.29378725,"ECCENTRICITY":0.0001725,"INCLINATION":28.4703,"RA_OF_ASC_NODE":77.887,"ARG_OF_PERICENTER":70.3509,"MEAN_ANOMALY":289.7272,"EPHEMERIS_TYPE":0,"CLASSIFICATION_TYPE":"U","NORAD_CAT_ID":20580,"ELEMENT_SET_NO":999,"REV_AT_EPOCH":77246,"BSTAR":0.00034382,"MEAN_MOTION_DOT":0.00010319,"MEAN_MOTION_DDOT":0},{"OBJECT_NAME":"TDRS 5","OBJECT_ID":"1991-054B","EPOCH":"2026-03-03T17:31:16.093632","MEAN_MOTION":1.00266106,"ECCENTRICITY":0.00109094,"INCLINATION":14.0842,"RA_OF_ASC_NODE":354.5584,"ARG_OF_PERICENTER":277.5234,"MEAN_ANOMALY":344.7078,"EPHEMERIS_TYPE":0,"CLASSIFICATION_TYPE":"U","NORAD_CAT_ID":21639,"ELEMENT_SET_NO":999,"REV_AT_EPOCH":12665,"BSTAR":0,"MEAN_MOTION_DOT":7.6e-7,"MEAN_MOTION_DDOT":0},{"OBJECT_NAME":"TDRS 6","OBJECT_ID":"1993-003B","EPOCH":"2026-03-03T07:14:57.335136","MEAN_MOTION":1.00279152,"ECCENTRICITY":0.00055855,"INCLINATION":14.1806,"RA_OF_ASC_NODE":357.8429,"ARG_OF_PERICENTER":201.1788,"MEAN_ANOMALY":24.7869,"EPHEMERIS_TYPE":0,"CLASSIFICATION_TYPE":"U","NORAD_CAT_ID":22314,"ELEMENT_SET_NO":999,"REV_AT_EPOCH":12134,"BSTAR":0,"MEAN_MOTION_DOT":-3.04e-6,"MEAN_MOTION_DDOT":0},{"OBJECT_NAME":"TDRS 7","OBJECT_ID":"1995-035B","EPOCH":"2026-03-03T17:18:29.694528","MEAN_MOTION":1.00276681,"ECCENTRICITY":0.00081593,"INCLINATION":13.4207,"RA_OF_ASC_NODE":348.9131,"ARG_OF_PERICENTER":47.3286,"MEAN_ANOMALY":113.8671,"EPHEMERIS_TYPE":0,"CLASSIFICATION_TYPE":"U","NORAD_CAT_ID":23613,"ELEMENT_SET_NO":999,"REV_AT_EPOCH":11219,"BSTAR":0,"MEAN_MOTION_DOT":-2.47e-6,"MEAN_MOTION_DDOT":0},{"OBJECT_NAME":"ISS (ZARYA)","OBJECT_ID":"1998-067A","EPOCH":"2026-03-04T03:45:47.118240","MEAN_MOTION":15.48434477,"ECCENTRICITY":0.0008201,"INCLINATION":51.6316,"RA_OF_ASC_NODE":99.7104,"ARG_OF_PERICENTER":155.0339,"MEAN_ANOMALY":205.1047,"EPHEMERIS_TYPE":0,"CLASSIFICATION_TYPE":"U","NORAD_CAT_ID":25544,"ELEMENT_SET_NO":999,"REV_AT_EPOCH":55547,"BSTAR":0.00019684,"MEAN_MOTION_DOT":0.00010207,"MEAN_MOTION_DDOT":0},{"OBJECT_NAME":"TERRA","OBJECT_ID":"1999-068A","EPOCH":"2026-03-04T04:02:48.540768","MEAN_MOTION":14.61008222,"ECCENTRICITY":0.0002341,"INCLINATION":97.9604,"RA_OF_ASC_NODE":116.814,"ARG_OF_PERICENTER":164.7813,"MEAN_ANOMALY":260.5333,"EPHEMERIS_TYPE":0,"CLASSIFICATION_TYPE":"U","NORAD_CAT_ID":25994,"ELEMENT_SET_NO":999,"REV_AT_EPOCH":39427,"BSTAR":0.00014267,"MEAN_MOTION_DOT":6.55e-6,"MEAN_MOTION_DDOT":0},{"OBJECT_NAME":"TDRS 8","OBJECT_ID":"2000-034A","EPOCH":"2026-03-03T21:19:30.353664","MEAN_MOTION":1.00276605,"ECCENTRICITY":0.0006151,"INCLINATION":12.518,"RA_OF_ASC_NODE":32.1998,"ARG_OF_PERICENTER":307.6527,"MEAN_ANOMALY":226.4214,"EPHEMERIS_TYPE":0,"CLASSIFICATION_TYPE":"U","NORAD_CAT_ID":26388,"ELEMENT_SET_NO":999,"REV_AT_EPOCH":9412,"BSTAR":0,"MEAN_MOTION_DOT":-2.03e-6,"MEAN_MOTION_DDOT":0},{"OBJECT_NAME":"TIMED","OBJECT_ID":"2001-055B","EPOCH":"2026-03-04T03:48:34.466400","MEAN_MOTION":14.95002481,"ECCENTRICITY":0.0002968,"INCLINATION":74.066,"RA_OF_ASC_NODE":86.4529,"ARG_OF_PERICENTER":281.772,"MEAN_ANOMALY":78.3131,"EPHEMERIS_TYPE":0,"CLASSIFICATION_TYPE":"U","NORAD_CAT_ID":26998,"ELEMENT_SET_NO":999,"REV_AT_EPOCH":31512,"BSTAR":0.00017523,"MEAN_MOTION_DOT":1.877e-5,"MEAN_MOTION_DDOT":0},{"OBJECT_NAME":"AQUA","OBJECT_ID":"2002-022A","EPOCH":"2026-03-04T03:23:06.734688","MEAN_MOTION":14.61961369,"ECCENTRICITY":6.42e-5,"INCLINATION":98.4165,"RA_OF_ASC_NODE":30.4053,"ARG_OF_PERICENTER":59.4152,"MEAN_ANOMALY":2.9589,"EPHEMERIS_TYPE":0,"CLASSIFICATION_TYPE":"U","NORAD_CAT_ID":27424,"ELEMENT_SET_NO":999,"REV_AT_EPOCH":26792,"BSTAR":0.00031298,"MEAN_MOTION_DOT":1.519e-5,"MEAN_MOTION_DDOT":0},{"OBJECT_NAME":"SORCE","OBJECT_ID":"2003-004A","EPOCH":"2026-03-03T15:40:11.238240","MEAN_MOTION":15.03042744,"ECCENTRICITY":0.00166768,"INCLINATION":39.9905,"RA_OF_ASC_NODE":143.5088,"ARG_OF_PERICENTER":9.7243,"MEAN_ANOMALY":350.3871,"EPHEMERIS_TYPE":0,"CLASSIFICATION_TYPE":"U","NORAD_CAT_ID":27651,"ELEMENT_SET_NO":999,"REV_AT_EPOCH":25601,"BSTAR":0.00035207648,"MEAN_MOTION_DOT":4.692e-5,"MEAN_MOTION_DDOT":0},{"OBJECT_NAME":"AURA","OBJECT_ID":"2004-026A","EPOCH":"2026-03-04T01:57:33.684768","MEAN_MOTION":14.61133568,"ECCENTRICITY":0.0001022,"INCLINATION":98.3302,"RA_OF_ASC_NODE":18.7485,"ARG_OF_PERICENTER":78.4005,"MEAN_ANOMALY":281.731,"EPHEMERIS_TYPE":0,"CLASSIFICATION_TYPE":"U","NORAD_CAT_ID":28376,"ELEMENT_SET_NO":999,"REV_AT_EPOCH":15086,"BSTAR":0.00031007,"MEAN_MOTION_DOT":1.477e-5,"MEAN_MOTION_DDOT":0},{"OBJECT_NAME":"SWIFT","OBJECT_ID":"2004-047A","EPOCH":"2026-03-03T21:56:42.583200","MEAN_MOTION":15.58709156,"ECCENTRICITY":0.000311,"INCLINATION":20.5532,"RA_OF_ASC_NODE":271.1351,"ARG_OF_PERICENTER":318.2835,"MEAN_ANOMALY":41.7372,"EPHEMERIS_TYPE":0,"CLASSIFICATION_TYPE":"U","NORAD_CAT_ID":28485,"ELEMENT_SET_NO":999,"REV_AT_EPOCH":17036,"BSTAR":0.00064171,"MEAN_MOTION_DOT":0.00052647,"MEAN_MOTION_DDOT":0},{"OBJECT_NAME":"THEMIS A","OBJECT_ID":"2007-004A","EPOCH":"2026-03-03T23:42:33.422112","MEAN_MOTION":0.87846778,"ECCENTRICITY":0.8405788,"INCLINATION":6.7286,"RA_OF_ASC_NODE":120.3478,"ARG_OF_PERICENTER":177.202,"MEAN_ANOMALY":197.4061,"EPHEMERIS_TYPE":0,"CLASSIFICATION_TYPE":"U","NORAD_CAT_ID":30580,"ELEMENT_SET_NO":999,"REV_AT_EPOCH":4035,"BSTAR":-0.0045938,"MEAN_MOTION_DOT":-1.63e-6,"MEAN_MOTION_DDOT":0},{"OBJECT_NAME":"THEMIS D","OBJECT_ID":"2007-004D","EPOCH":"2026-03-03T20:54:04.318848","MEAN_MOTION":0.87835945,"ECCENTRICITY":0.8358854,"INCLINATION":6.5956,"RA_OF_ASC_NODE":84.7581,"ARG_OF_PERICENTER":215.597,"MEAN_ANOMALY":147.7594,"EPHEMERIS_TYPE":0,"CLASSIFICATION_TYPE":"U","NORAD_CAT_ID":30797,"ELEMENT_SET_NO":999,"REV_AT_EPOCH":4015,"BSTAR":0,"MEAN_MOTION_DOT":-2.22e-6,"MEAN_MOTION_DDOT":0},{"OBJECT_NAME":"THEMIS E","OBJECT_ID":"2007-004E","EPOCH":"2026-03-04T03:22:18.704928","MEAN_MOTION":0.87837644,"ECCENTRICITY":0.8362591,"INCLINATION":4.1189,"RA_OF_ASC_NODE":99.925,"ARG_OF_PERICENTER":201.406,"MEAN_ANOMALY":247.3906,"EPHEMERIS_TYPE":0,"CLASSIFICATION_TYPE":"U","NORAD_CAT_ID":30798,"ELEMENT_SET_NO":999,"REV_AT_EPOCH":6499,"BSTAR":0,"MEAN_MOTION_DOT":-2.26e-6,"MEAN_MOTION_DDOT":0},{"OBJECT_NAME":"FGRST (GLAST)","OBJECT_ID":"2008-029A","EPOCH":"2026-03-03T17:19:41.694240","MEAN_MOTION":15.23275126,"ECCENTRICITY":0.0008499,"INCLINATION":25.5812,"RA_OF_ASC_NODE":216.4397,"ARG_OF_PERICENTER":158.2408,"MEAN_ANOMALY":201.8492,"EPHEMERIS_TYPE":0,"CLASSIFICATION_TYPE":"U","NORAD_CAT_ID":33053,"ELEMENT_SET_NO":999,"REV_AT_EPOCH":97973,"BSTAR":0.00020161,"MEAN_MOTION_DOT":5.259e-5,"MEAN_MOTION_DDOT":0}]
